OBJECT_NAME,OBJECT_ID,EPOCH,MEAN_MOTION,ECCENTRICITY,INCLINATION,RA_OF_ASC_NODE,ARG_OF_PERICENTER,MEAN_ANOMALY,EPHEMERIS_TYPE,CLASSIFICATION_TYPE,NORAD_CAT_ID,ELEMENT_SET_NO,REV_AT_EPOCH,BSTAR,MEAN_MOTION_DOT,MEAN_MOTION_DDOT
FLOCK 4BE-27,2024-149AX,2026-06-08T20:19:33.729888,15.34303410,.0003216,97.3822,241.6950,356.2578,3.8640,0,U,60513,999,10086,.27691E-3,.912E-4,0
FLOCK 4BE-9,2024-149AY,2026-06-08T20:11:54.153600,15.40547459,.0001805,97.3787,244.0338,352.1920,7.9297,0,U,60514,999,10103,.37852E-3,.15304E-3,0
FLOCK 4BE-6,2024-149BA,2026-06-08T19:10:18.225120,15.39351734,.0002408,97.3784,243.3647,345.2853,14.8322,0,U,60516,999,10098,.35442E-3,.13769E-3,0
FLOCK 4BE-14,2024-149BB,2026-06-08T18:57:50.707008,15.40732082,.000326,97.3693,243.4854,336.5683,23.5415,0,U,60517,999,10103,.36894E-3,.15007E-3,0
FLOCK 4BE-1,2024-149BC,2026-06-08T11:46:11.672832,15.42318689,.000299,97.3772,244.4292,336.3581,23.7528,0,U,60518,999,10103,.35919E-3,.154E-3,0
FLOCK 4BE-28,2024-149BD,2026-06-08T20:11:45.785760,15.44620803,.0003056,97.3744,245.4830,328.2295,31.8769,0,U,60519,999,10115,.40007E-3,.18554E-3,0
IPERDRONE.0,2024-149BE,2026-06-08T17:51:49.510656,15.65444748,.0002815,97.3777,252.5481,249.9650,110.1307,0,U,60520,999,10159,.76469E-3,.76775E-3,0
TRANSPORTER-11 OBJECT BF,2024-149BF,2026-06-08T18:49:27.717312,15.81090537,.0005192,97.3761,255.0968,245.0674,115.0055,0,U,60521,999,10175,.10786E-2,.214432E-2,0
CONNECTA IOT-2,2024-149BG,2026-06-08T18:36:35.906112,15.23906599,.000637,97.3837,238.0489,9.7882,350.3478,0,U,60522,999,10061,.20861E-3,.497E-4,0
PTD-R (TYVAK-0127),2024-149BH,2026-06-08T17:59:11.541696,16.10564751,.000975,97.3900,259.8873,267.8140,92.2028,0,U,60523,999,10208,.14462E-2,.1371491E-1,.12859E-2
CONNECTA IOT-4,2024-149BJ,2026-06-08T18:30:29.856096,15.41845817,.0004158,97.3796,244.0435,325.9837,34.1143,0,U,60524,999,10103,.50584E-3,.21402E-3,0
DEIMOS,2024-149BL,2026-06-08T18:58:13.522656,15.43927491,.0004229,97.3779,245.8091,322.6894,37.4060,0,U,60526,999,10115,.39768E-3,.18016E-3,0
CUAVA-2,2024-149BM,2026-06-08T17:52:08.179104,15.35926076,.0005618,97.3722,241.2509,332.2650,27.8293,0,U,60527,999,10087,.3456E-3,.12015E-3,0
ERNST,2024-149BN,2026-06-08T18:47:16.785024,15.38987274,.0004909,97.3802,243.4407,337.3301,22.7727,0,U,60528,999,10098,.36868E-3,.14161E-3,0
TORO,2024-149BQ,2026-06-08T17:56:25.523232,14.96391647,.0001611,97.6779,234.5728,90.8016,269.3390,0,U,60530,999,9869,.22414E-3,.2482E-4,0
HYPSO-2,2024-149BR,2026-06-08T18:55:34.018752,14.98756038,.0001513,97.6822,236.1731,46.8197,313.3152,0,U,60531,999,9879,.16585E-3,.1938E-4,0
LEMU NGE,2024-149BS,2026-06-08T03:34:41.188512,14.94915590,.00024892,97.6836,234.2914,79.5600,280.5901,0,U,60532,999,9860,.24975017E-3,.2669E-4,0
LEMUR-2-STELLA,2024-149BT,2026-06-08T17:47:57.892992,15.11628707,.0001901,97.6731,242.1612,100.0747,260.0697,0,U,60533,999,9922,.67427E-3,.11402E-3,0
SATELIOT_2,2024-149BU,2026-06-08T17:37:24.085056,14.96328839,.0001685,97.6819,234.8447,103.2295,256.9115,0,U,60534,999,9870,.1855E-3,.2041E-4,0
NIGHTJAR,2024-149BV,2026-06-08T17:08:59.445024,14.98983134,.0002252,97.6864,236.5394,87.0664,273.0816,0,U,60535,999,14160,.23656E-3,.2806E-4,0
LEMUR-2-MARHISYAM,2024-149BW,2026-06-08T18:50:36.185856,15.11088438,.0003028,97.6873,242.6451,135.4723,224.6750,0,U,60536,999,9921,.73346E-3,.12226E-3,0
SATELIOT_4,2024-149BX,2026-06-08T17:55:30.902016,14.96636849,.0003465,97.6729,234.3900,80.4686,279.6927,0,U,60537,999,9871,.21548E-3,.2399E-4,0
PICO-02A021,2024-149BY,2026-06-07T17:08:12.388128,15.03153848,.00056171,97.6720,237.6275,54.4244,305.7504,0,U,60538,999,9831,.45210099E-3,.605E-4,0
ICEYE-X43,2024-149BZ,2026-06-08T18:06:34.219008,14.99556844,.0007748,97.6763,236.8368,109.3566,250.8495,0,U,60539,999,9885,.32255E-3,.3909E-4,0
HAWK-10A,2024-149CA,2026-06-08T17:52:26.309280,14.96484599,.0004805,97.6890,235.8009,99.6971,260.4793,0,U,60540,999,9872,.16464E-3,.1812E-4,0
UMBRA-09,2024-149CB,2026-06-08T18:16:21.188640,15.17815527,.0000267,97.6964,246.8235,298.0378,62.0828,0,U,60541,999,9944,.69001E-3,.13901E-3,0
QPS-SAR-8 (AMATERU-IV),2024-149CC,2026-06-08T19:28:16.300128,15.04056782,.0004925,97.6667,239.0320,125.0750,235.0939,0,U,60542,999,9901,.37247E-3,.5095E-4,0
ARCTIC WEATHER SATELLITE,2024-149CD,2026-06-08T18:11:39.661152,14.89793396,.0003309,97.6803,230.4645,120.7583,239.3961,0,U,60543,999,9804,.10133E-3,.918E-5,0
CAPELLA-15 (ACADIA-5),2024-149CE,2026-06-08T17:46:11.773056,14.92417656,.0005181,97.6766,232.8550,105.5352,254.6439,0,U,60544,999,9859,.44514E-3,.4506E-4,0
