FLOCK 4BE-27            
1 60513U 24149AX  26159.84691817  .00009120  00000+0  27691-3 0  9991
2 60513  97.3822 241.6950 0003216 356.2578   3.8640 15.34303410100863
FLOCK 4BE-9             
1 60514U 24149AY  26159.84159900  .00015304  00000+0  37852-3 0  9995
2 60514  97.3787 244.0338 0001805 352.1920   7.9297 15.40547459101032
FLOCK 4BE-6             
1 60516U 24149BA  26159.79882205  .00013769  00000+0  35442-3 0  9998
2 60516  97.3784 243.3647 0002408 345.2853  14.8322 15.39351734100980
FLOCK 4BE-14            
1 60517U 24149BB  26159.79017022  .00015007  00000+0  36894-3 0  9995
2 60517  97.3693 243.4854 0003260 336.5683  23.5415 15.40732082101030
FLOCK 4BE-1             
1 60518U 24149BC  26159.49041289  .00015400  00000+0  35919-3 0  9999
2 60518  97.3772 244.4292 0002989 336.3581  23.7528 15.42318689101030
FLOCK 4BE-28            
1 60519U 24149BD  26159.84150215  .00018554  00000+0  40007-3 0  9996
2 60519  97.3744 245.4830 0003056 328.2295  31.8769 15.44620803101153
IPERDRONE.0             
1 60520U 24149BE  26159.74432304  .00076775  00000+0  76469-3 0  9999
2 60520  97.3777 252.5481 0002815 249.9650 110.1307 15.65444748101590
TRANSPORTER-11 OBJECT BF
1 60521U 24149BF  26159.78434858  .00214432  00000+0  10786-2 0  9993
2 60521  97.3761 255.0968 0005192 245.0674 115.0055 15.81090537101759
CONNECTA IOT-2          
1 60522U 24149BG  26159.77541558  .00004970  00000+0  20861-3 0  9999
2 60522  97.3837 238.0489 0006370   9.7882 350.3478 15.23906599100615
PTD-R (TYVAK-0127)      
1 60523U 24149BH  26159.74943914  .01371491  12859-2  14462-2 0  9992
2 60523  97.3900 259.8873 0009750 267.8140  92.2028 16.10564751102087
CONNECTA IOT-4          
1 60524U 24149BJ  26159.77117889  .00021402  00000+0  50584-3 0  9991
2 60524  97.3796 244.0435 0004158 325.9837  34.1143 15.41845817101032
DEIMOS                  
1 60526U 24149BL  26159.79043429  .00018016  00000+0  39768-3 0  9991
2 60526  97.3779 245.8091 0004229 322.6894  37.4060 15.43927491101156
CUAVA-2                 
1 60527U 24149BM  26159.74453911  .00012015  00000+0  34560-3 0  9996
2 60527  97.3722 241.2509 0005618 332.2650  27.8293 15.35926076100877
ERNST                   
1 60528U 24149BN  26159.78283316  .00014161  00000+0  36868-3 0  9998
2 60528  97.3802 243.4407 0004909 337.3301  22.7727 15.38987274100987
TORO                    
1 60530U 24149BQ  26159.74751763  .00002482  00000+0  22414-3 0  9998
2 60530  97.6779 234.5728 0001611  90.8016 269.3390 14.96391647 98699
HYPSO-2                 
1 60531U 24149BR  26159.78858818  .00001938  00000+0  16585-3 0  9999
2 60531  97.6822 236.1731 0001513  46.8197 313.3152 14.98756038 98791
LEMU NGE                
1 60532U 24149BS  26159.14908783  .00002669  00000+0  24975-3 0  9991
2 60532  97.6836 234.2914 0002489  79.5600 280.5901 14.94915590 98607
LEMUR-2-STELLA          
1 60533U 24149BT  26159.74164228  .00011402  00000+0  67427-3 0  9990
2 60533  97.6731 242.1612 0001901 100.0747 260.0697 15.11628707 99220
SATELIOT_2              
1 60534U 24149BU  26159.73430654  .00002041  00000+0  18550-3 0  9991
2 60534  97.6819 234.8447 0001685 103.2295 256.9115 14.96328839 98700
NIGHTJAR                
1 60535U 24149BV  26159.71457691  .00002806  00000+0  23656-3 0  9992
2 60535  97.6864 236.5394 0002252  87.0664 273.0816 14.98983134141604
LEMUR-2-MARHISYAM       
1 60536U 24149BW  26159.78514104  .00012226  00000+0  73346-3 0  9991
2 60536  97.6873 242.6451 0003028 135.4723 224.6750 15.11088438 99210
SATELIOT_4              
1 60537U 24149BX  26159.74688544  .00002399  00000+0  21548-3 0  9995
2 60537  97.6729 234.3900 0003465  80.4686 279.6927 14.96636849 98717
PICO-02A021             
1 60538U 24149BY  26158.71403227  .00006050  00000+0  45210-3 0  9995
2 60538  97.6720 237.6275 0005617  54.4244 305.7504 15.03153848 98312
ICEYE-X43               
1 60539U 24149BZ  26159.75456272  .00003909  00000+0  32255-3 0  9994
2 60539  97.6763 236.8368 0007748 109.3566 250.8495 14.99556844 98853
HAWK-10A                
1 60540U 24149CA  26159.74474895  .00001812  00000+0  16464-3 0  9991
2 60540  97.6890 235.8009 0004805  99.6971 260.4793 14.96484599 98727
UMBRA-09                
1 60541U 24149CB  26159.76135635  .00013901  00000+0  69001-3 0  9997
2 60541  97.6964 246.8235 0000267 298.0378  62.0828 15.17815527 99445
QPS-SAR-8 (AMATERU-IV)  
1 60542U 24149CC  26159.81129977  .00005095  00000+0  37247-3 0  9998
2 60542  97.6667 239.0320 0004925 125.0750 235.0939 15.04056782 99017
ARCTIC WEATHER SATELLITE
1 60543U 24149CD  26159.75809793  .00000918  00000+0  10133-3 0  9997
2 60543  97.6803 230.4645 0003309 120.7583 239.3961 14.89793396 98041
CAPELLA-15 (ACADIA-5)   
1 60544U 24149CE  26159.74041404  .00004506  00000+0  44514-3 0  9991
2 60544  97.6766 232.8550 0005181 105.5352 254.6439 14.92417656 98592
